{
  "type": "FeatureCollection",
  "features": [
    {
      "type": "Feature",
      "properties": {
        "norad_id": 37415,
        "name": "FENGYUN 1C DEB",
        "group": "fengyun-1c-debris",
        "lat": 67.76256266071366,
        "lon": 82.46628731301152,
        "alt_km": 1025.2971746767862,
        "timestamp": "2025-12-24T11:33:00.306535+00:00",
        "meta_object_name": "FENGYUN 1C DEB",
        "meta_object_id": "1999-025EGH",
        "meta_epoch": "2025-12-23T13:53:12.939072",
        "meta_mean_motion": 13.5209761,
        "meta_eccentricity": 0.02853312,
        "meta_inclination": 98.9814,
        "meta_ra_of_asc_node": 104.4038,
        "meta_arg_of_pericenter": 154.7014,
        "meta_mean_anomaly": 206.8414,
        "meta_ephemeris_type": 0,
        "meta_classification_type": "U",
        "meta_norad_cat_id": 37415,
        "meta_element_set_no": 999,
        "meta_rev_at_epoch": 62468,
        "meta_bstar": 0.00032333843,
        "meta_mean_motion_dot": 2.38e-06,
        "meta_mean_motion_ddot": 0,
        "tle_line1": "1 37415U 99025EGH 25357.57862198  .00000238  00000+0  32334-3 0  9993",
        "tle_line2": "2 37415  98.9814 104.4038 0285331 154.7014 206.8414 13.52097610624680"
      },
      "geometry": {
        "type": "Point",
        "coordinates": [
          82.46628731301152,
          67.76256266071366
        ]
      }
    },
    {
      "type": "Feature",
      "properties": {
        "norad_id": 37417,
        "name": "FENGYUN 1C DEB",
        "group": "fengyun-1c-debris",
        "lat": 29.12014487139133,
        "lon": -13.98184132890909,
        "alt_km": 921.0037231714286,
        "timestamp": "2025-12-24T11:33:00.306545+00:00",
        "meta_object_name": "FENGYUN 1C DEB",
        "meta_object_id": "1999-025EGK",
        "meta_epoch": "2025-12-23T18:20:46.512672",
        "meta_mean_motion": 14.07401894,
        "meta_eccentricity": 0.00785702,
        "meta_inclination": 98.7977,
        "meta_ra_of_asc_node": 350.2692,
        "meta_arg_of_pericenter": 229.3558,
        "meta_mean_anomaly": 130.0762,
        "meta_ephemeris_type": 0,
        "meta_classification_type": "U",
        "meta_norad_cat_id": 37417,
        "meta_element_set_no": 999,
        "meta_rev_at_epoch": 68505,
        "meta_bstar": 0.00036509896,
        "meta_mean_motion_dot": 5.88e-06,
        "meta_mean_motion_ddot": 0,
        "tle_line1": "1 37417U 99025EGK 25357.76442723  .00000588  00000+0  36510-3 0  9992",
        "tle_line2": "2 37417  98.7977 350.2692 0078570 229.3558 130.0762 14.07401894685050"
      },
      "geometry": {
        "type": "Point",
        "coordinates": [
          -13.98184132890909,
          29.12014487139133
        ]
      }
    },
    {
      "type": "Feature",
      "properties": {
        "norad_id": 37418,
        "name": "FENGYUN 1C DEB",
        "group": "fengyun-1c-debris",
        "lat": -57.9077190574635,
        "lon": 52.75235823691407,
        "alt_km": 1183.5656248650785,
        "timestamp": "2025-12-24T11:33:00.306556+00:00",
        "meta_object_name": "FENGYUN 1C DEB",
        "meta_object_id": "1999-025EGL",
        "meta_epoch": "2025-12-19T23:37:42.567744",
        "meta_mean_motion": 11.95144251,
        "meta_eccentricity": 0.10761283,
        "meta_inclination": 98.6118,
        "meta_ra_of_asc_node": 243.7385,
        "meta_arg_of_pericenter": 305.6539,
        "meta_mean_anomaly": 44.8873,
        "meta_ephemeris_type": 0,
        "meta_classification_type": "U",
        "meta_norad_cat_id": 37418,
        "meta_element_set_no": 999,
        "meta_rev_at_epoch": 49571,
        "meta_bstar": -0.00092644522,
        "meta_mean_motion_dot": -4.14e-06,
        "meta_mean_motion_ddot": 0,
        "tle_line1": "1 37418U 99025EGL 25353.98452046 -.00000414  00000+0 -92645-3 0  9993",
        "tle_line2": "2 37418  98.6118 243.7385 1076128 305.6539  44.8873 11.95144251495719"
      },
      "geometry": {
        "type": "Point",
        "coordinates": [
          52.75235823691407,
          -57.9077190574635
        ]
      }
    },
    {
      "type": "Feature",
      "properties": {
        "norad_id": 37420,
        "name": "FENGYUN 1C DEB",
        "group": "fengyun-1c-debris",
        "lat": -53.72874192825463,
        "lon": 0.3808576328338811,
        "alt_km": 877.0765932509612,
        "timestamp": "2025-12-24T11:33:00.306566+00:00",
        "meta_object_name": "FENGYUN 1C DEB",
        "meta_object_id": "1999-025EGN",
        "meta_epoch": "2025-12-20T18:36:12.337056",
        "meta_mean_motion": 13.99759458,
        "meta_eccentricity": 0.00709493,
        "meta_inclination": 98.8637,
        "meta_ra_of_asc_node": 344.5139,
        "meta_arg_of_pericenter": 253.6303,
        "meta_mean_anomaly": 105.7053,
        "meta_ephemeris_type": 0,
        "meta_classification_type": "U",
        "meta_norad_cat_id": 37420,
        "meta_element_set_no": 999,
        "meta_rev_at_epoch": 59877,
        "meta_bstar": 0.00033965148,
        "meta_mean_motion_dot": 4.65e-06,
        "meta_mean_motion_ddot": 0,
        "tle_line1": "1 37420U 99025EGN 25354.77514279  .00000465  00000+0  33965-3 0  9995",
        "tle_line2": "2 37420  98.8637 344.5139 0070949 253.6303 105.7053 13.99759458598776"
      },
      "geometry": {
        "type": "Point",
        "coordinates": [
          0.3808576328338811,
          -53.72874192825463
        ]
      }
    },
    {
      "type": "Feature",
      "properties": {
        "norad_id": 37421,
        "name": "FENGYUN 1C DEB",
        "group": "fengyun-1c-debris",
        "lat": -59.675183977972374,
        "lon": -32.65928009376453,
        "alt_km": 1242.6001278100084,
        "timestamp": "2025-12-24T11:33:00.306575+00:00",
        "meta_object_name": "FENGYUN 1C DEB",
        "meta_object_id": "1999-025EGP",
        "meta_epoch": "2025-12-22T15:04:15.674880",
        "meta_mean_motion": 13.40544347,
        "meta_eccentricity": 0.04094585,
        "meta_inclination": 98.8889,
        "meta_ra_of_asc_node": 310.1905,
        "meta_arg_of_pericenter": 60.6769,
        "meta_mean_anomaly": 303.4625,
        "meta_ephemeris_type": 0,
        "meta_classification_type": "U",
        "meta_norad_cat_id": 37421,
        "meta_element_set_no": 999,
        "meta_rev_at_epoch": 61078,
        "meta_bstar": 0.00082017291,
        "meta_mean_motion_dot": 7.02e-06,
        "meta_mean_motion_ddot": 0,
        "tle_line1": "1 37421U 99025EGP 25356.62795920  .00000702  00000+0  82017-3 0  9992",
        "tle_line2": "2 37421  98.8889 310.1905 0409458  60.6769 303.4625 13.40544347610782"
      },
      "geometry": {
        "type": "Point",
        "coordinates": [
          -32.65928009376453,
          -59.675183977972374
        ]
      }
    },
    {
      "type": "Feature",
      "properties": {
        "norad_id": 37423,
        "name": "FENGYUN 1C DEB",
        "group": "fengyun-1c-debris",
        "lat": -58.013749661898395,
        "lon": 62.7367797905779,
        "alt_km": 910.3003919920784,
        "timestamp": "2025-12-24T11:33:00.306586+00:00",
        "meta_object_name": "FENGYUN 1C DEB",
        "meta_object_id": "1999-025EGR",
        "meta_epoch": "2025-12-19T20:56:31.693920",
        "meta_mean_motion": 14.07571536,
        "meta_eccentricity": 0.0049402,
        "meta_inclination": 98.7853,
        "meta_ra_of_asc_node": 43.9189,
        "meta_arg_of_pericenter": 140.2024,
        "meta_mean_anomaly": 220.2786,
        "meta_ephemeris_type": 0,
        "meta_classification_type": "U",
        "meta_norad_cat_id": 37423,
        "meta_element_set_no": 999,
        "meta_rev_at_epoch": 63710,
        "meta_bstar": 0.00067171,
        "meta_mean_motion_dot": 1.103e-05,
        "meta_mean_motion_ddot": 0,
        "tle_line1": "1 37423U 99025EGR 25353.87258905  .00001103  00000+0  67171-3 0  9995",
        "tle_line2": "2 37423  98.7853  43.9189 0049402 140.2024 220.2786 14.07571536637100"
      },
      "geometry": {
        "type": "Point",
        "coordinates": [
          62.7367797905779,
          -58.013749661898395
        ]
      }
    },
    {
      "type": "Feature",
      "properties": {
        "norad_id": 37424,
        "name": "FENGYUN 1C DEB",
        "group": "fengyun-1c-debris",
        "lat": -66.54037046427368,
        "lon": -72.15739854022937,
        "alt_km": 685.031723916848,
        "timestamp": "2025-12-24T11:33:00.306596+00:00",
        "meta_object_name": "FENGYUN 1C DEB",
        "meta_object_id": "1999-025EGS",
        "meta_epoch": "2025-12-21T14:37:45.437952",
        "meta_mean_motion": 14.17892468,
        "meta_eccentricity": 0.021449,
        "meta_inclination": 97.1981,
        "meta_ra_of_asc_node": 122.4405,
        "meta_arg_of_pericenter": 255.8264,
        "meta_mean_anomaly": 101.9002,
        "meta_ephemeris_type": 0,
        "meta_classification_type": "U",
        "meta_norad_cat_id": 37424,
        "meta_element_set_no": 999,
        "meta_rev_at_epoch": 68699,
        "meta_bstar": 0.00090223,
        "meta_mean_motion_dot": 2.279e-05,
        "meta_mean_motion_ddot": 0,
        "tle_line1": "1 37424U 99025EGS 25355.60955368  .00002279  00000+0  90223-3 0  9995",
        "tle_line2": "2 37424  97.1981 122.4405 0214490 255.8264 101.9002 14.17892468686998"
      },
      "geometry": {
        "type": "Point",
        "coordinates": [
          -72.15739854022937,
          -66.54037046427368
        ]
      }
    }
  ]
}